ONEWEB-0697             
1 61603U 24188K   25140.60150898 -.00000507  00000+0 -14672-2 0  9993
2 61603  87.8799  99.3506 0002343 105.2056 254.9331 13.11415157 32998
ONEWEB-0698             
1 61604U 24188L   25140.80837135  .00000289  00000+0  77965-3 0  9992
2 61604  87.8813  99.3144 0001644 116.4101 243.7196 13.11412783 33046
ONEWEB-0699             
1 61605U 24188M   25140.66161696 -.00000174  00000+0 -53359-3 0  9995
2 61605  87.8803 114.5184 0001789  96.5498 263.5833 13.10375228 31909
ONEWEB-0700             
1 61606U 24188N   25140.66327509 -.00000076  00000+0 -25434-3 0  9997
2 61606  87.8722 114.4567 0002683  95.1771 264.9663 13.10375613 31899
ONEWEB-0701             
1 61607U 24188P   25140.45081539  .00000699  00000+0  19649-2 0  9994
2 61607  87.8800 114.5674 0002373 107.7424 252.3962 13.10381374 31870
ONEWEB-0702             
1 61608U 24188Q   25140.62529306  .00000100  00000+0  24550-3 0  9998
2 61608  87.8746  99.3523 0002659 102.2639 257.8786 13.11421340 33031
ONEWEB-0704             
1 61609U 24188R   25140.82097463  .00000211  00000+0  56890-3 0  9990
2 61609  87.8832 114.4158 0002765 102.1058 258.0379 13.10376002 31901
ONEWEB-0705             
1 61610U 24188S   25140.67324805  .00000461  00000+0  12847-2 0  9998
2 61610  87.8790 114.5140 0003204  88.1545 271.9949 13.10374966 24053
